[{"OBJECT_NAME":"NOVASAR 1","OBJECT_ID":"2018-071B","EPOCH":"2026-03-09T22:37:23.630304","MEAN_MOTION":14.96279869,"ECCENTRICITY":0.00025467,"INCLINATION":97.522,"RA_OF_ASC_NODE":305.2476,"ARG_OF_PERICENTER":88.2237,"MEAN_ANOMALY":271.9277,"EPHEMERIS_TYPE":0,"CLASSIFICATION_TYPE":"U","NORAD_CAT_ID":43619,"ELEMENT_SET_NO":999,"REV_AT_EPOCH":40809,"BSTAR":0.00014385278,"MEAN_MOTION_DOT":1.57e-5,"MEAN_MOTION_DDOT":0},{"OBJECT_NAME":"STARLINK-36190","OBJECT_ID":"2025-293AC","EPOCH":"2026-03-09T11:46:34.094496","MEAN_MOTION":14.98334017,"ECCENTRICITY":0.00041469,"INCLINATION":70.0004,"RA_OF_ASC_NODE":95.1339,"ARG_OF_PERICENTER":267.3595,"MEAN_ANOMALY":92.709,"EPHEMERIS_TYPE":0,"CLASSIFICATION_TYPE":"U","NORAD_CAT_ID":67029,"ELEMENT_SET_NO":999,"REV_AT_EPOCH":1485,"BSTAR":0.00017601562,"MEAN_MOTION_DOT":2.008e-5,"MEAN_MOTION_DDOT":0}]
